[
    {
        "Altitude(m)": 604969.0891470028,
        "Argument of Periapsis(deg)": 0.0,
        "Eccentricity": 0.0,
        "Inclination(deg)": 60.0,
        "Latitude(deg)": -0.0926696114556742,
        "Longitude(deg)": -10.022472214600167,
        "Mean Anomaly(deg)": 0.0,
        "RAAN(deg)": 90.0,
        "Satellite Name": "Test1 396",
        "Satellite Number": 396,
        "Semi-Major Axis(m)": 6980739.136638005,
        "Time(s)": 0
    },
    {
        "Altitude(m)": 604900.0285843095,
        "Argument of Periapsis(deg)": 0.00010418945913296404,
        "Eccentricity": 0.0,
        "Inclination(deg)": 60.0,
        "Latitude(deg)": 0.44775681258080746,
        "Longitude(deg)": -9.754350238298725,
        "Mean Anomaly(deg)": 0.6201061454618275,
        "RAAN(deg)": 89.99957995086027,
        "Satellite Name": "Test1 396",
        "Satellite Number": 396,
        "Semi-Major Axis(m)": 6980739.136638005,
        "Time(s)": 10
    }
]